CCSDS_OMM_VERS = 2.0
CREATION_DATE  = 
ORIGINATOR     = 

OBJECT_NAME    = HTV-X1
OBJECT_ID      = 2025-241A
CENTER_NAME    = EARTH
REF_FRAME      = TEME
TIME_SYSTEM    = UTC
MEAN_ELEMENT_THEORY = SGP/SGP4

EPOCH          = 2026-04-02T21:49:02.167968
MEAN_MOTION    = 15.32509724
ECCENTRICITY   = .00072635
INCLINATION    = 51.6370
RA_OF_ASC_NODE = 316.3281
ARG_OF_PERICENTER = 266.2114
MEAN_ANOMALY   = 93.8037

EPHEMERIS_TYPE = 0
CLASSIFICATION_TYPE = U
NORAD_CAT_ID   = 66174
ELEMENT_SET_NO = 999
REV_AT_EPOCH   = 2465
BSTAR          = .12615874E-3
MEAN_MOTION_DOT = .3651E-4
MEAN_MOTION_DDOT = 0

CCSDS_OMM_VERS = 2.0
CREATION_DATE  = 
ORIGINATOR     = 

OBJECT_NAME    = SZ-21 MODULE
OBJECT_ID      = 2025-246C
CENTER_NAME    = EARTH
REF_FRAME      = TEME
TIME_SYSTEM    = UTC
MEAN_ELEMENT_THEORY = SGP/SGP4

EPOCH          = 2026-04-02T14:48:28.852704
MEAN_MOTION    = 15.70483759
ECCENTRICITY   = .00027799
INCLINATION    = 41.4746
RA_OF_ASC_NODE = 55.8608
ARG_OF_PERICENTER = 223.0414
MEAN_ANOMALY   = 137.0212

EPHEMERIS_TYPE = 0
CLASSIFICATION_TYPE = U
NORAD_CAT_ID   = 66515
ELEMENT_SET_NO = 999
REV_AT_EPOCH   = 2183
BSTAR          = .39708118E-3
MEAN_MOTION_DOT = .50186E-3
MEAN_MOTION_DDOT = 0

CCSDS_OMM_VERS = 2.0
CREATION_DATE  = 
ORIGINATOR     = 

OBJECT_NAME    = SHENZHOU-22
OBJECT_ID      = 2025-272A
CENTER_NAME    = EARTH
REF_FRAME      = TEME
TIME_SYSTEM    = UTC
MEAN_ELEMENT_THEORY = SGP/SGP4

EPOCH          = 2026-04-02T19:56:30.850368
MEAN_MOTION    = 15.61894032
ECCENTRICITY   = .00037451
INCLINATION    = 41.4672
RA_OF_ASC_NODE = 61.1335
ARG_OF_PERICENTER = 109.1274
MEAN_ANOMALY   = 250.9971

EPHEMERIS_TYPE = 0
CLASSIFICATION_TYPE = U
NORAD_CAT_ID   = 66645
ELEMENT_SET_NO = 999
REV_AT_EPOCH   = 28115
BSTAR          = .36779505E-3
MEAN_MOTION_DOT = .3271E-3
MEAN_MOTION_DDOT = 0

CCSDS_OMM_VERS = 2.0
CREATION_DATE  = 
ORIGINATOR     = 

OBJECT_NAME    = SOYUZ-MS 28
OBJECT_ID      = 2025-275A
CENTER_NAME    = EARTH
REF_FRAME      = TEME
TIME_SYSTEM    = UTC
MEAN_ELEMENT_THEORY = SGP/SGP4

EPOCH          = 2026-04-02T20:14:17.914560
MEAN_MOTION    = 15.48729122
ECCENTRICITY   = .00062358
INCLINATION    = 51.6328
RA_OF_ASC_NODE = 312.9475
ARG_OF_PERICENTER = 264.7845
MEAN_ANOMALY   = 95.2432

EPHEMERIS_TYPE = 0
CLASSIFICATION_TYPE = U
NORAD_CAT_ID   = 66664
ELEMENT_SET_NO = 999
REV_AT_EPOCH   = 55986
BSTAR          = .22446991E-3
MEAN_MOTION_DOT = .11825E-3
MEAN_MOTION_DDOT = 0

CCSDS_OMM_VERS = 2.0
CREATION_DATE  = 
ORIGINATOR     = 

OBJECT_NAME    = DUPLEX
OBJECT_ID      = 1998-067XS
CENTER_NAME    = EARTH
REF_FRAME      = TEME
TIME_SYSTEM    = UTC
MEAN_ELEMENT_THEORY = SGP/SGP4

EPOCH          = 2026-04-02T21:52:35.349600
MEAN_MOTION    = 15.57862975
ECCENTRICITY   = .00031232
INCLINATION    = 51.6285
RA_OF_ASC_NODE = 308.1544
ARG_OF_PERICENTER = 225.6918
MEAN_ANOMALY   = 134.3819

EPHEMERIS_TYPE = 0
CLASSIFICATION_TYPE = U
NORAD_CAT_ID   = 66906
ELEMENT_SET_NO = 999
REV_AT_EPOCH   = 1890
BSTAR          = .60951971E-3
MEAN_MOTION_DOT = .46103E-3
MEAN_MOTION_DDOT = 0

CCSDS_OMM_VERS = 2.0
CREATION_DATE  = 
ORIGINATOR     = 

OBJECT_NAME    = ISS OBJECT XT
OBJECT_ID      = 1998-067XT
CENTER_NAME    = EARTH
REF_FRAME      = TEME
TIME_SYSTEM    = UTC
MEAN_ELEMENT_THEORY = SGP/SGP4

EPOCH          = 2026-04-02T20:11:42.287424
MEAN_MOTION    = 15.79069790
ECCENTRICITY   = .00069252
INCLINATION    = 51.6224
RA_OF_ASC_NODE = 301.6406
ARG_OF_PERICENTER = 238.4515
MEAN_ANOMALY   = 121.5810

EPHEMERIS_TYPE = 0
CLASSIFICATION_TYPE = U
NORAD_CAT_ID   = 66907
ELEMENT_SET_NO = 999
REV_AT_EPOCH   = 1898
BSTAR          = .20759009E-2
MEAN_MOTION_DOT = .395588E-2
MEAN_MOTION_DDOT = 0

CCSDS_OMM_VERS = 2.0
CREATION_DATE  = 
ORIGINATOR     = 

OBJECT_NAME    = ISS OBJECT XU
OBJECT_ID      = 1998-067XU
CENTER_NAME    = EARTH
REF_FRAME      = TEME
TIME_SYSTEM    = UTC
MEAN_ELEMENT_THEORY = SGP/SGP4

EPOCH          = 2026-04-02T14:00:29.185632
MEAN_MOTION    = 15.79162212
ECCENTRICITY   = .00070805
INCLINATION    = 51.6227
RA_OF_ASC_NODE = 302.9152
ARG_OF_PERICENTER = 236.5684
MEAN_ANOMALY   = 123.4640

EPHEMERIS_TYPE = 0
CLASSIFICATION_TYPE = U
NORAD_CAT_ID   = 66908
ELEMENT_SET_NO = 999
REV_AT_EPOCH   = 1894
BSTAR          = .16661764E-2
MEAN_MOTION_DOT = .315777E-2
MEAN_MOTION_DDOT = 0

CCSDS_OMM_VERS = 2.0
CREATION_DATE  = 
ORIGINATOR     = 

OBJECT_NAME    = SILVERSAT
OBJECT_ID      = 1998-067XV
CENTER_NAME    = EARTH
REF_FRAME      = TEME
TIME_SYSTEM    = UTC
MEAN_ELEMENT_THEORY = SGP/SGP4

EPOCH          = 2026-04-02T13:59:38.023008
MEAN_MOTION    = 15.85656241
ECCENTRICITY   = .00084842
INCLINATION    = 51.6187
RA_OF_ASC_NODE = 301.3924
ARG_OF_PERICENTER = 244.3474
MEAN_ANOMALY   = 115.6654

EPHEMERIS_TYPE = 0
CLASSIFICATION_TYPE = U
NORAD_CAT_ID   = 66909
ELEMENT_SET_NO = 999
REV_AT_EPOCH   = 1896
BSTAR          = .18698813E-2
MEAN_MOTION_DOT = .490335E-2
MEAN_MOTION_DDOT = 0

CCSDS_OMM_VERS = 2.0
CREATION_DATE  = 
ORIGINATOR     = 

OBJECT_NAME    = ISS OBJECT XW
OBJECT_ID      = 1998-067XW
CENTER_NAME    = EARTH
REF_FRAME      = TEME
TIME_SYSTEM    = UTC
MEAN_ELEMENT_THEORY = SGP/SGP4

EPOCH          = 2026-04-02T20:29:28.075488
MEAN_MOTION    = 15.77220477
ECCENTRICITY   = .00072559
INCLINATION    = 51.6203
RA_OF_ASC_NODE = 301.7150
ARG_OF_PERICENTER = 233.7499
MEAN_ANOMALY   = 126.2831

EPHEMERIS_TYPE = 0
CLASSIFICATION_TYPE = U
NORAD_CAT_ID   = 66910
ELEMENT_SET_NO = 999
REV_AT_EPOCH   = 1898
BSTAR          = .19101395E-2
MEAN_MOTION_DOT = .33257E-2
MEAN_MOTION_DDOT = 0

CCSDS_OMM_VERS = 2.0
CREATION_DATE  = 
ORIGINATOR     = 

OBJECT_NAME    = ISS OBJECT XX
OBJECT_ID      = 1998-067XX
CENTER_NAME    = EARTH
REF_FRAME      = TEME
TIME_SYSTEM    = UTC
MEAN_ELEMENT_THEORY = SGP/SGP4

EPOCH          = 2026-04-02T22:34:23.452608
MEAN_MOTION    = 15.95513790
ECCENTRICITY   = .00106649
INCLINATION    = 51.6159
RA_OF_ASC_NODE = 297.7328
ARG_OF_PERICENTER = 251.8408
MEAN_ANOMALY   = 108.1439

EPHEMERIS_TYPE = 0
CLASSIFICATION_TYPE = U
NORAD_CAT_ID   = 66911
ELEMENT_SET_NO = 999
REV_AT_EPOCH   = 1903
BSTAR          = .27184661E-2
MEAN_MOTION_DOT = .1110416E-1
MEAN_MOTION_DDOT = .58671647E-3

CCSDS_OMM_VERS = 2.0
CREATION_DATE  = 
ORIGINATOR     = 

OBJECT_NAME    = ISS OBJECT XY
OBJECT_ID      = 1998-067XY
CENTER_NAME    = EARTH
REF_FRAME      = TEME
TIME_SYSTEM    = UTC
MEAN_ELEMENT_THEORY = SGP/SGP4

EPOCH          = 2026-04-02T13:46:44.196960
MEAN_MOTION    = 15.68819733
ECCENTRICITY   = .00047395
INCLINATION    = 51.6258
RA_OF_ASC_NODE = 305.8859
ARG_OF_PERICENTER = 230.4496
MEAN_ANOMALY   = 129.6082

EPHEMERIS_TYPE = 0
CLASSIFICATION_TYPE = U
NORAD_CAT_ID   = 66912
ELEMENT_SET_NO = 999
REV_AT_EPOCH   = 1889
BSTAR          = .11569692E-2
MEAN_MOTION_DOT = .137053E-2
MEAN_MOTION_DDOT = 0

CCSDS_OMM_VERS = 2.0
CREATION_DATE  = 
ORIGINATOR     = 

OBJECT_NAME    = KNACKSAT-2
OBJECT_ID      = 1998-067XZ
CENTER_NAME    = EARTH
REF_FRAME      = TEME
TIME_SYSTEM    = UTC
MEAN_ELEMENT_THEORY = SGP/SGP4

EPOCH          = 2026-04-02T00:35:52.009728
MEAN_MOTION    = 15.53816312
ECCENTRICITY   = .00103577
INCLINATION    = 51.6312
RA_OF_ASC_NODE = 315.7350
ARG_OF_PERICENTER = 271.4198
MEAN_ANOMALY   = 88.5606

EPHEMERIS_TYPE = 0
CLASSIFICATION_TYPE = U
NORAD_CAT_ID   = 67683
ELEMENT_SET_NO = 999
REV_AT_EPOCH   = 841
BSTAR          = .70546081E-3
MEAN_MOTION_DOT = .46055E-3
MEAN_MOTION_DDOT = 0

